BIRKELAND               
1 55015U 23001G   26129.47768135  .00006483  00000+0  16781-3 0  9999
2 55015  97.3361 197.3658 0005455 233.4791 126.5953 15.39402199186395
ION SCV-008             
1 55051U 23001AU  26129.21584944  .00006004  00000+0  22121-3 0  9999
2 55051  97.5679 224.9026 0015988 146.1289 214.0974 15.28095420185386
ION SCV-007             
1 55060U 23001BD  26129.46130736  .00000325  00000+0  52654-4 0  9997
2 55060  97.9026 193.2404 0013785 100.3253 259.9512 14.77517606180536
HUYGENS                 
1 55093U 23001CN  26129.47775568  .00007840  00000+0  20227-3 0  9991
2 55093  97.3265 196.6455 0008812 212.8692 147.2007 15.39404278186415
SHARJAHSAT-1            
1 55104U 23001CZ  26129.46454894  .00014921  00000+0  29029-3 0  9996
2 55104  97.3187 197.7338 0004740 229.0420 131.0421 15.47671960186502
HORUS 1                 
1 55690U 23025A   26129.53119664  .00004322  00000+0  18390-3 0  9996
2 55690  97.3471 204.9342 0002038 115.0075 245.1374 15.23528622178169
HORUS 2                 
1 55844U 23032A   26129.50064953  .00004509  00000+0  19261-3 0  9997
2 55844  97.3538 205.6740 0002304 152.9811 207.1546 15.23370942175591
GLOBAL-19               
1 55982U 23041B   26129.14418576  .00012336  00000+0  32685-3 0  9996
2 55982  42.0013  69.6699 0005004  60.0901 300.0435 15.38202832175913
BRO-9                   
1 56185U 23054H   26129.54930725  .00145181  00000+0  75683-3 0  9995
2 56185  97.2982  45.2698 0007563 130.1454 230.0478 15.80467105172952
ION SCV-010             
1 56192U 23054Q   26129.47230442  .00003527  00000+0  14033-3 0  9993
2 56192  97.3822  19.4672 0012480 349.9235  10.1751 15.25857917170299
TELEOS-2                
1 56310U 23057C   26129.43164060  .00004455  00000+0  32361-3 0  9991
2 56310   9.9872 126.3641 0000838 272.7397  87.2720 14.96373593166987
SNIPE 4                 
1 56744U 23072B   26129.52630985  .00017162  00000+0  41964-3 0  9991
2 56744  97.5295 334.3459 0007154 104.4262 255.7778 15.40850120164156
SNIPE 2                 
1 56745U 23072C   26129.54670690  .00019759  00000+0  42108-3 0  9996
2 56745  97.5292 337.1553 0006211 128.2396 231.9412 15.44942945164270
2023-072G               
1 56749U 23072G   26129.50774689  .00022004  00000+0  41537-3 0  9991
2 56749  97.4953 335.8812 0005425 118.9900 241.1894 15.48460340164470
GEISAT PRECURSOR        
1 56934U 23084C   26129.48090334  .00006597  00000+0  20226-3 0  9996
2 56934  97.6170 269.1900 0007257 119.0003 241.1968 15.34110804161591
BLACKJACK ACES-3        
1 56950U 23084U   26129.35382213  .00002993  00000+0  14889-3 0  9994
2 56950  97.6154 264.2691 0004235 123.1519 237.0121 15.18404225161270
BLACKJACK ACES-2        
1 56955U 23084Z   26129.42600537  .00005198  00000+0  25711-3 0  9995
2 56955  97.6151 264.4277 0002641 105.2759 254.8767 15.18260074161297
BLACKJACK ACES-1        
1 56956U 23084AA  26129.34765598  .00005268  00000+0  26001-3 0  9997
2 56956  97.6142 264.1283 0002215  92.8698 267.2789 15.18335356111004
ION SCV-011             
1 56957U 23084AB  26129.51097103  .00004131  00000+0  15220-3 0  9996
2 56957  98.1389 313.2195 0007631 162.8201 197.3296 15.28462569159902
GHOST-3                 
1 56958U 23084AC  26129.35873819  .00014833  00000+0  29910-3 0  9996
2 56958  97.6170 275.9006 0007257  80.2282 279.9786 15.46624948162014
TOMORROW-R2             
1 56962U 23084AG  26129.40623999  .00148162  00000+0  55810-3 0  9990
2 56962  97.5931 288.7267 0000974 316.5947  43.5247 15.87393716162878
AFR-1                   
1 56964U 23084AJ  26129.53910777  .00003774  00000+0  13987-3 0  9997
2 56964  97.6217 265.3238 0011972 112.9425 247.3079 15.28219649161329
METEOR-M2 3             
1 57166U 23091A   26129.52442791 -.00000013  00000+0  13344-4 0  9997
2 57166  98.6112 185.2880 0002779 287.4683  72.6192 14.24043435149011
UMKA 1 (RS40S)          
1 57172U 23091G   26129.46547285  .00004049  00000+0  18889-3 0  9991
2 57172  97.5074 188.3198 0011348 251.6849 108.3152 15.20377249158123
2023-091H               
1 57173U 23091H   26129.48477193  .00007800  00000+0  28970-3 0  9994
2 57173  97.5068 192.3850 0008664 244.6800 115.3542 15.27808706158397
2023-091J               
1 57174U 23091J   26129.51899128  .00002287  00000+0  13063-3 0  9996
2 57174  97.5084 183.1684 0011651 282.5943  77.3986 15.13669384157781
CUBEBEL 2 (EU11S)       
1 57175U 23091K   26129.49769362  .00008341  00000+0  30537-3 0  9992
2 57175  97.5071 192.3933 0008704 246.2479 113.7847 15.28257827158393
SITRO-AIS 5 (KATYS)     
1 57176U 23091L   26129.45718845  .00008759  00000+0  31731-3 0  9999
2 57176  97.5079 193.0117 0010439 233.1277 126.9006 15.28573847158423
ZORKIY-2M 1             
1 57177U 23091M   26129.51901819  .00005033  00000+0  23379-3 0  9993
2 57177  97.5114 188.6172 0011975 248.0427 111.9535 15.20404237158129
CUBESX-HSE 3 (RS42S)    
1 57178U 23091N   26129.47348485  .00009081  00000+0  31253-3 0  9990
2 57178  97.5109 194.5983 0010110 222.2933 137.7529 15.30245571158502
