OBJECT_NAME,OBJECT_ID,EPOCH,MEAN_MOTION,ECCENTRICITY,INCLINATION,RA_OF_ASC_NODE,ARG_OF_PERICENTER,MEAN_ANOMALY,EPHEMERIS_TYPE,CLASSIFICATION_TYPE,NORAD_CAT_ID,ELEMENT_SET_NO,REV_AT_EPOCH,BSTAR,MEAN_MOTION_DOT,MEAN_MOTION_DDOT
BIRKELAND,2023-001G,2026-05-09T11:27:51.668640,15.39402199,.0005455,97.3361,197.3658,233.4791,126.5953,0,U,55015,999,18639,.16781E-3,.6483E-4,0
ION SCV-008,2023-001AU,2026-05-09T05:10:49.391616,15.28095420,.00159887,97.5679,224.9026,146.1289,214.0974,0,U,55051,999,18538,.22121187E-3,.6004E-4,0
ION SCV-007,2023-001BD,2026-05-09T11:04:16.955904,14.77517606,.0013785,97.9026,193.2404,100.3253,259.9512,0,U,55060,999,18053,.52654E-4,.325E-5,0
HUYGENS,2023-001CN,2026-05-09T11:27:58.090752,15.39404278,.0008812,97.3265,196.6455,212.8692,147.2007,0,U,55093,999,18641,.20227E-3,.784E-4,0
SHARJAHSAT-1,2023-001CZ,2026-05-09T11:08:57.028416,15.47671960,.000474,97.3187,197.7338,229.0420,131.0421,0,U,55104,999,18650,.29029E-3,.14921E-3,0
HORUS 1,2023-025A,2026-05-09T12:44:55.389696,15.23528622,.0002038,97.3471,204.9342,115.0075,245.1374,0,U,55690,999,17816,.1839E-3,.4322E-4,0
HORUS 2,2023-032A,2026-05-09T12:00:56.119392,15.23370942,.0002304,97.3538,205.6740,152.9811,207.1546,0,U,55844,999,17559,.19261E-3,.4509E-4,0
GLOBAL-19,2023-041B,2026-05-09T03:27:37.649664,15.38202832,.0005004,42.0013,69.6699,60.0901,300.0435,0,U,55982,999,17591,.32685475E-3,.12336E-3,0
BRO-9,2023-054H,2026-05-09T13:11:00.146400,15.80467105,.0007563,97.2982,45.2698,130.1454,230.0478,0,U,56185,999,17295,.75683E-3,.145181E-2,0
ION SCV-010,2023-054Q,2026-05-09T11:20:07.101888,15.25857917,.001248,97.3822,19.4672,349.9235,10.1751,0,U,56192,999,17029,.14033E-3,.3527E-4,0
TELEOS-2,2023-057C,2026-05-09T10:21:33.747840,14.96373593,.0000838,9.9872,126.3641,272.7397,87.2720,0,U,56310,999,16698,.32361E-3,.4455E-4,0
SNIPE 4,2023-072B,2026-05-09T12:37:53.171040,15.40850120,.0007154,97.5295,334.3459,104.4262,255.7778,0,U,56744,999,16415,.41964E-3,.17162E-3,0
SNIPE 2,2023-072C,2026-05-09T13:07:15.476160,15.44942945,.0006211,97.5292,337.1553,128.2396,231.9412,0,U,56745,999,16427,.42108E-3,.19759E-3,0
2023-072G,2023-072G,2026-05-09T12:11:09.331296,15.48460340,.0005425,97.4953,335.8812,118.9900,241.1894,0,U,56749,999,16447,.41537E-3,.22004E-3,0
GEISAT PRECURSOR,2023-084C,2026-05-09T11:32:30.048576,15.34110804,.0007257,97.6170,269.1900,119.0003,241.1968,0,U,56934,999,16159,.20226E-3,.6597E-4,0
BLACKJACK ACES-3,2023-084U,2026-05-09T08:29:30.232032,15.18404225,.0004235,97.6154,264.2691,123.1519,237.0121,0,U,56950,999,16127,.14889E-3,.2993E-4,0
BLACKJACK ACES-2,2023-084Z,2026-05-09T10:13:26.863968,15.18260074,.0002641,97.6151,264.4277,105.2759,254.8767,0,U,56955,999,16129,.25711E-3,.5198E-4,0
BLACKJACK ACES-1,2023-084AA,2026-05-09T08:20:37.476672,15.18335356,.0002215,97.6142,264.1283,92.8698,267.2789,0,U,56956,999,11100,.26001E-3,.5268E-4,0
ION SCV-011,2023-084AB,2026-05-09T12:15:47.896992,15.28462569,.0007631,98.1389,313.2195,162.8201,197.3296,0,U,56957,999,15990,.1522E-3,.4131E-4,0
GHOST-3,2023-084AC,2026-05-09T08:36:34.979616,15.46624948,.0007257,97.6170,275.9006,80.2282,279.9786,0,U,56958,999,16201,.2991E-3,.14833E-3,0
TOMORROW-R2,2023-084AG,2026-05-09T09:44:59.135136,15.87393716,.0000974,97.5931,288.7267,316.5947,43.5247,0,U,56962,999,16287,.5581E-3,.148162E-2,0
AFR-1,2023-084AJ,2026-05-09T12:56:18.911328,15.28219649,.0011972,97.6217,265.3238,112.9425,247.3079,0,U,56964,999,16132,.13987E-3,.3774E-4,0
METEOR-M2 3,2023-091A,2026-05-09T12:35:10.571424,14.24043435,.0002779,98.6112,185.2880,287.4683,72.6192,0,U,57166,999,14901,.13344E-4,-.13E-6,0
UMKA 1 (RS40S),2023-091G,2026-05-09T11:10:16.854240,15.20377249,.0011348,97.5074,188.3198,251.6849,108.3152,0,U,57172,999,15812,.18889E-3,.4049E-4,0
2023-091H,2023-091H,2026-05-09T11:38:04.294752,15.27808706,.0008664,97.5068,192.3850,244.6800,115.3542,0,U,57173,999,15839,.2897E-3,.78E-4,0
2023-091J,2023-091J,2026-05-09T12:27:20.846592,15.13669384,.0011651,97.5084,183.1684,282.5943,77.3986,0,U,57174,999,15778,.13063E-3,.2287E-4,0
CUBEBEL 2 (EU11S),2023-091K,2026-05-09T11:56:40.728768,15.28257827,.0008704,97.5071,192.3933,246.2479,113.7847,0,U,57175,999,15839,.30537E-3,.8341E-4,0
SITRO-AIS 5 (KATYS),2023-091L,2026-05-09T10:58:21.082080,15.28573847,.0010439,97.5079,193.0117,233.1277,126.9006,0,U,57176,999,15842,.31731E-3,.8759E-4,0
ZORKIY-2M 1,2023-091M,2026-05-09T12:27:23.171616,15.20404237,.0011975,97.5114,188.6172,248.0427,111.9535,0,U,57177,999,15812,.23379E-3,.5033E-4,0
CUBESX-HSE 3 (RS42S),2023-091N,2026-05-09T11:21:49.091040,15.30245571,.001011,97.5109,194.5983,222.2933,137.7529,0,U,57178,999,15850,.31253E-3,.9081E-4,0
